[
    {
        "Altitude(m)": 553498.561333532,
        "Argument of Periapsis(deg)": 0.006622991110713501,
        "Eccentricity": 0.0,
        "Inclination(deg)": 53.0,
        "Latitude(deg)": 9.471526763591152,
        "Longitude(deg)": 31.409370857962415,
        "Mean Anomaly(deg)": 11.909792867577599,
        "RAAN(deg)": 124.99014336852804,
        "Satellite Name": "Starlink Shell 1 550",
        "Satellite Number": 550,
        "Semi-Major Axis(m)": 6931778.249405717,
        "Time(s)": 190
    },
    {
        "Altitude(m)": 553487.174309462,
        "Argument of Periapsis(deg)": 0.0069715695902247375,
        "Eccentricity": 0.0,
        "Inclination(deg)": 53.0,
        "Latitude(deg)": 9.971297398821205,
        "Longitude(deg)": 31.75582522006148,
        "Mean Anomaly(deg)": 12.536624071134295,
        "RAAN(deg)": 124.98962459845055,
        "Satellite Name": "Starlink Shell 1 550",
        "Satellite Number": 550,
        "Semi-Major Axis(m)": 6931778.249405717,
        "Time(s)": 200
    },
    {
        "Altitude(m)": 553478.4796941575,
        "Argument of Periapsis(deg)": 0.007320148069735974,
        "Eccentricity": 0.0,
        "Inclination(deg)": 53.0,
        "Latitude(deg)": 10.470607102034615,
        "Longitude(deg)": 32.103465793383506,
        "Mean Anomaly(deg)": 13.163455274691014,
        "RAAN(deg)": 124.98910582837308,
        "Satellite Name": "Starlink Shell 1 550",
        "Satellite Number": 550,
        "Semi-Major Axis(m)": 6931778.249405717,
        "Time(s)": 210
    },
    {
        "Altitude(m)": 553472.4586014459,
        "Argument of Periapsis(deg)": 0.007668726549247212,
        "Eccentricity": 0.0,
        "Inclination(deg)": 53.0,
        "Latitude(deg)": 10.969430403355698,
        "Longitude(deg)": 32.452355493692686,
        "Mean Anomaly(deg)": 13.790286478247737,
        "RAAN(deg)": 124.98858705829561,
        "Satellite Name": "Starlink Shell 1 550",
        "Satellite Number": 550,
        "Semi-Major Axis(m)": 6931778.249405717,
        "Time(s)": 220
    },
    {
        "Altitude(m)": 553469.090909502,
        "Argument of Periapsis(deg)": 0.00801730502875845,
        "Eccentricity": 0.0,
        "Inclination(deg)": 53.0,
        "Latitude(deg)": 11.467741568063836,
        "Longitude(deg)": 32.802557779284456,
        "Mean Anomaly(deg)": 14.417117681804458,
        "RAAN(deg)": 124.98806828821813,
        "Satellite Name": "Starlink Shell 1 550",
        "Satellite Number": 550,
        "Semi-Major Axis(m)": 6931778.249405717,
        "Time(s)": 230
    },
    {
        "Altitude(m)": 553468.3552736157,
        "Argument of Periapsis(deg)": 0.008365883508269684,
        "Eccentricity": 0.0,
        "Inclination(deg)": 53.0,
        "Latitude(deg)": 11.96551458225157,
        "Longitude(deg)": 33.154137181923836,
        "Mean Anomaly(deg)": 15.043948885361178,
        "RAAN(deg)": 124.98754951814067,
        "Satellite Name": "Starlink Shell 1 550",
        "Satellite Number": 550,
        "Semi-Major Axis(m)": 6931778.249405717,
        "Time(s)": 240
    },
    {
        "Altitude(m)": 553470.2291395366,
        "Argument of Periapsis(deg)": 0.008714461987780921,
        "Eccentricity": 0.0,
        "Inclination(deg)": 53.0,
        "Latitude(deg)": 12.462723138221993,
        "Longitude(deg)": 33.50715832499012,
        "Mean Anomaly(deg)": 15.670780088917875,
        "RAAN(deg)": 124.9870307480632,
        "Satellite Name": "Starlink Shell 1 550",
        "Satellite Number": 550,
        "Semi-Major Axis(m)": 6931778.249405717,
        "Time(s)": 250
    },
    {
        "Altitude(m)": 553474.6887574113,
        "Argument of Periapsis(deg)": 0.009063040467292158,
        "Eccentricity": 0.0,
        "Inclination(deg)": 53.0,
        "Latitude(deg)": 12.959340619618292,
        "Longitude(deg)": 33.861686454567995,
        "Mean Anomaly(deg)": 16.297611292474596,
        "RAAN(deg)": 124.98651197798571,
        "Satellite Name": "Starlink Shell 1 550",
        "Satellite Number": 550,
        "Semi-Major Axis(m)": 6931778.249405717,
        "Time(s)": 260
    },
    {
        "Altitude(m)": 553481.7091963257,
        "Argument of Periapsis(deg)": 0.009411618946803396,
        "Eccentricity": 0.0,
        "Inclination(deg)": 53.0,
        "Latitude(deg)": 13.455340086269965,
        "Longitude(deg)": 34.21778797060297,
        "Mean Anomaly(deg)": 16.924442496031315,
        "RAAN(deg)": 124.98599320790825,
        "Satellite Name": "Starlink Shell 1 550",
        "Satellite Number": 550,
        "Semi-Major Axis(m)": 6931778.249405717,
        "Time(s)": 270
    },
    {
        "Altitude(m)": 553491.2643594184,
        "Argument of Periapsis(deg)": 0.009760197426314633,
        "Eccentricity": 0.0,
        "Inclination(deg)": 53.0,
        "Latitude(deg)": 13.95069425874111,
        "Longitude(deg)": 34.57552944523634,
        "Mean Anomaly(deg)": 17.551273699588037,
        "RAAN(deg)": 124.98547443783077,
        "Satellite Name": "Starlink Shell 1 550",
        "Satellite Number": 550,
        "Semi-Major Axis(m)": 6931778.249405717,
        "Time(s)": 280
    },
    {
        "Altitude(m)": 553503.3269995382,
        "Argument of Periapsis(deg)": 0.01010877590582587,
        "Eccentricity": 0.0,
        "Inclination(deg)": 53.0,
        "Latitude(deg)": 14.445375502572816,
        "Longitude(deg)": 34.934978154054306,
        "Mean Anomaly(deg)": 18.178104903144735,
        "RAAN(deg)": 124.9849556677533,
        "Satellite Name": "Starlink Shell 1 550",
        "Satellite Number": 550,
        "Semi-Major Axis(m)": 6931778.249405717,
        "Time(s)": 290
    },
    {
        "Altitude(m)": 553517.8687354816,
        "Argument of Periapsis(deg)": 0.010457354385337106,
        "Eccentricity": 0.0,
        "Inclination(deg)": 53.0,
        "Latitude(deg)": 14.93935581220498,
        "Longitude(deg)": 35.29620260736339,
        "Mean Anomaly(deg)": 18.804936106701454,
        "RAAN(deg)": 124.98443689767583,
        "Satellite Name": "Starlink Shell 1 550",
        "Satellite Number": 550,
        "Semi-Major Axis(m)": 6931778.249405717,
        "Time(s)": 300
    },
    {
        "Altitude(m)": 553534.8600687769,
        "Argument of Periapsis(deg)": 0.010805932864848343,
        "Eccentricity": 0.0,
        "Inclination(deg)": 53.0,
        "Latitude(deg)": 15.432606794561945,
        "Longitude(deg)": 35.65927156860034,
        "Mean Anomaly(deg)": 19.43176731025815,
        "RAAN(deg)": 124.98391812759837,
        "Satellite Name": "Starlink Shell 1 550",
        "Satellite Number": 550,
        "Semi-Major Axis(m)": 6931778.249405717,
        "Time(s)": 310
    },
    {
        "Altitude(m)": 553554.2704010201,
        "Argument of Periapsis(deg)": 0.01115451134435958,
        "Eccentricity": 0.0,
        "Inclination(deg)": 53.0,
        "Latitude(deg)": 15.925099652294962,
        "Longitude(deg)": 36.02425458560521,
        "Mean Anomaly(deg)": 20.058598513814896,
        "RAAN(deg)": 124.98339935752088,
        "Satellite Name": "Starlink Shell 1 550",
        "Satellite Number": 550,
        "Semi-Major Axis(m)": 6931778.249405717,
        "Time(s)": 320
    },
    {
        "Altitude(m)": 553576.0680517027,
        "Argument of Periapsis(deg)": 0.011503089823870818,
        "Eccentricity": 0.0,
        "Inclination(deg)": 53.0,
        "Latitude(deg)": 16.41680516666583,
        "Longitude(deg)": 36.39122252186055,
        "Mean Anomaly(deg)": 20.68542971737162,
        "RAAN(deg)": 124.98288058744342,
        "Satellite Name": "Starlink Shell 1 550",
        "Satellite Number": 550,
        "Semi-Major Axis(m)": 6931778.249405717,
        "Time(s)": 330
    },
    {
        "Altitude(m)": 553600.2202766202,
        "Argument of Periapsis(deg)": 0.011851668303382053,
        "Eccentricity": 0.0,
        "Inclination(deg)": 53.0,
        "Latitude(deg)": 16.907693680057292,
        "Longitude(deg)": 36.76024657479844,
        "Mean Anomaly(deg)": 21.312260920928313,
        "RAAN(deg)": 124.98236181736594,
        "Satellite Name": "Starlink Shell 1 550",
        "Satellite Number": 550,
        "Semi-Major Axis(m)": 6931778.249405717,
        "Time(s)": 340
    },
    {
        "Altitude(m)": 553626.6932867143,
        "Argument of Periapsis(deg)": 0.012200246782893292,
        "Eccentricity": 0.0,
        "Inclination(deg)": 53.0,
        "Latitude(deg)": 17.39773507810251,
        "Longitude(deg)": 37.13139880689425,
        "Mean Anomaly(deg)": 21.939092124485036,
        "RAAN(deg)": 124.98184304728845,
        "Satellite Name": "Starlink Shell 1 550",
        "Satellite Number": 550,
        "Semi-Major Axis(m)": 6931778.249405717,
        "Time(s)": 350
    },
    {
        "Altitude(m)": 553655.4522674987,
        "Argument of Periapsis(deg)": 0.012548825262404526,
        "Eccentricity": 0.0,
        "Inclination(deg)": 53.0,
        "Latitude(deg)": 17.88689877141859,
        "Longitude(deg)": 37.504752676640976,
        "Mean Anomaly(deg)": 22.56592332804173,
        "RAAN(deg)": 124.981324277211,
        "Satellite Name": "Starlink Shell 1 550",
        "Satellite Number": 550,
        "Semi-Major Axis(m)": 6931778.249405717,
        "Time(s)": 360
    },
    {
        "Altitude(m)": 553686.4613988997,
        "Argument of Periapsis(deg)": 0.012897403741915765,
        "Eccentricity": 0.0,
        "Inclination(deg)": 53.0,
        "Latitude(deg)": 18.375153676930303,
        "Longitude(deg)": 37.88038205649573,
        "Mean Anomaly(deg)": 23.192754531598478,
        "RAAN(deg)": 124.98080550713354,
        "Satellite Name": "Starlink Shell 1 550",
        "Satellite Number": 550,
        "Semi-Major Axis(m)": 6931778.249405717,
        "Time(s)": 370
    }
]